{"epoch":1784799577,"count":18318,"objects":[{"id":"43574","name":"IRIDIUM 154","type":"PAYLOAD","l1":"1 43574U 18061F   26203.81354705  .00000082  00000-0  22370-4 0  9993","l2":"2 43574  86.3939  41.9035 0002286  88.8572 271.2886 14.34218000418517"},{"id":"43575","name":"IRIDIUM 163","type":"PAYLOAD","l1":"1 43575U 18061G   26203.51544478  .00000110  00000-0  32278-4 0  9999","l2":"2 43575  86.3936  41.9422 0002116  87.8746 272.2692 14.34218370418447"},{"id":"43576","name":"IRIDIUM 156","type":"PAYLOAD","l1":"1 43576U 18061H   26203.55984256  .00000190  00000-0  60733-4 0  9991","l2":"2 43576  86.3936  41.9312 0002204  93.4641 266.6806 14.34217941418448"},{"id":"43577","name":"IRIDIUM 164","type":"PAYLOAD","l1":"1 43577U 18061J   26203.54081557  .00000025  00000-0  20095-5 0  9998","l2":"2 43577  86.3933  41.9800 0002201  88.1150 272.0298 14.34217802418487"},{"id":"43578","name":"IRIDIUM 159","type":"PAYLOAD","l1":"1 43578U 18061K   26203.57887110  .00000005  00000-0 -51141-5 0  9996","l2":"2 43578  86.3932  41.9002 0001975  86.7557 273.3865 14.34217421418451"},{"id":"43922","name":"IRIDIUM 180","type":"PAYLOAD","l1":"1 43922U 19002A   26203.36906122  .00000187  00000-0  59643-4 0  9991","l2":"2 43922  86.3996 338.8919 0002050  91.3770 268.7660 14.34218670394038"},{"id":"43923","name":"IRIDIUM 176","type":"PAYLOAD","l1":"1 43923U 19002B   26203.63824574  .00000604  00000-0  91821-4 0  9990","l2":"2 43923  86.6120 338.7177 0002341  92.0636 268.0849 14.72256146404461"},{"id":"43924","name":"IRIDIUM 168","type":"PAYLOAD","l1":"1 43924U 19002C   26203.64179302  .00000196  00000-0  62965-4 0  9997","l2":"2 43924  86.4002 338.8559 0002193  91.8821 268.2626 14.34218945394053"},{"id":"43925","name":"IRIDIUM 173","type":"PAYLOAD","l1":"1 43925U 19002D   26203.76864509 -.00000035  00000-0 -19431-4 0  9995","l2":"2 43925  86.3996 338.6907 0002033  93.2074 266.9354 14.34217441394052"},{"id":"43926","name":"IRIDIUM 169","type":"PAYLOAD","l1":"1 43926U 19002E   26203.72565616  .00000236  00000-0  70510-4 0  9995","l2":"2 43926  86.4234  10.3314 0002105 104.4100 255.7332 14.38601502395333"},{"id":"43927","name":"IRIDIUM 172","type":"PAYLOAD","l1":"1 43927U 19002F   26203.34369128  .00000031  00000-0  39243-5 0  9996","l2":"2 43927  86.3998 338.8761 0002184  92.1203 268.0243 14.34217946394000"},{"id":"43928","name":"IRIDIUM 175","type":"PAYLOAD","l1":"1 43928U 19002G   26203.90346655  .00000229  00000-0  61515-4 0  9994","l2":"2 43928  86.4502 275.5919 0005573 100.4267 259.7563 14.43630086404135"},{"id":"43929","name":"IRIDIUM 171","type":"PAYLOAD","l1":"1 43929U 19002H   26203.32466427  .00000206  00000-0  66482-4 0  9994","l2":"2 43929  86.4009 339.1940 0002269  95.3139 264.8316 14.34218413393998"},{"id":"43930","name":"IRIDIUM 170","type":"PAYLOAD","l1":"1 43930U 19002J   26203.64441243  .00000601  00000-0  91342-4 0  9992","l2":"2 43930  86.6119 338.7172 0002192  89.8733 270.2735 14.72256740404478"},{"id":"43931","name":"IRIDIUM 167","type":"PAYLOAD","l1":"1 43931U 19002K   26203.31832029  .00000151  00000-0  46780-4 0  9999","l2":"2 43931  86.3990 338.9096 0002473 121.4205 238.7233 14.34393285393999"},{"id":"56726","name":"IRIDIUM 181","type":"PAYLOAD","l1":"1 56726U 23068S   26203.53377745  .00000230  00000-0  62285-4 0  9991","l2":"2 56726  86.4475  42.0077 0002342  83.7006 276.4462 14.43309837167532"},{"id":"56727","name":"IRIDIUM 177","type":"PAYLOAD","l1":"1 56727U 23068T   26203.68181700  .00000790  00000-0  10099-3 0  9998","l2":"2 56727  86.1987 311.9415 0002269  97.8392 262.3086 14.80033487171610"},{"id":"56728","name":"IRIDIUM 174","type":"PAYLOAD","l1":"1 56728U 23068U   26203.83585188  .00000515  00000-0  77699-4 0  9999","l2":"2 56728  86.6121 338.7871 0001899  94.1921 265.9514 14.72252403171263"},{"id":"56729","name":"IRIDIUM 178","type":"PAYLOAD","l1":"1 56729U 23068V   26203.40041278  .00000710  00000-0  90403-4 0  9995","l2":"2 56729  86.6543  10.6427 0002276  92.1624 267.9858 14.80021379171575"},{"id":"56730","name":"IRIDIUM 179","type":"PAYLOAD","l1":"1 56730U 23068W   26203.73311701  .00000243  00000-0  28706-4 0  9992","l2":"2 56730  86.6773  19.5876 0002406  94.2122 265.9374 14.80025358171627"}]}